{
    "links": {
        "self": "http://www.neowsapp.com/rest/v1/neo/3154349?api_key=iIulBulltgU6a56xZRHN4H3l9WmuAYTsLGpBGhQ2"
    },
    "id": "3154349",
    "neo_reference_id": "3154349",
    "name": "(2003 JX2)",
    "designation": "2003 JX2",
    "nasa_jpl_url": "http://ssd.jpl.nasa.gov/sbdb.cgi?sstr=3154349",
    "absolute_magnitude_h": 26.4,
    "estimated_diameter": {
        "kilometers": {
            "estimated_diameter_min": 0.0139493823,
            "estimated_diameter_max": 0.0311917671
        },
        "meters": {
            "estimated_diameter_min": 13.9493822934,
            "estimated_diameter_max": 31.1917670523
        },
        "miles": {
            "estimated_diameter_min": 0.0086677416,
            "estimated_diameter_max": 0.0193816595
        },
        "feet": {
            "estimated_diameter_min": 45.7656914036,
            "estimated_diameter_max": 102.3351970157
        }
    },
    "is_potentially_hazardous_asteroid": false,
    "close_approach_data": [
        {
            "close_approach_date": "2002-09-10",
            "close_approach_date_full": "2002-Sep-10 08:48",
            "epoch_date_close_approach": 1031647680000,
            "relative_velocity": {
                "kilometers_per_second": "7.228373824",
                "kilometers_per_hour": "26022.1457664093",
                "miles_per_hour": "16169.1494069114"
            },
            "miss_distance": {
                "astronomical": "0.3793247234",
                "lunar": "147.5573174026",
                "kilometers": "56746170.658979158",
                "miles": "35260435.3993740604"
            },
            "orbiting_body": "Earth"
        },
        {
            "close_approach_date": "2003-04-27",
            "close_approach_date_full": "2003-Apr-27 17:59",
            "epoch_date_close_approach": 1051466340000,
            "relative_velocity": {
                "kilometers_per_second": "8.341742769",
                "kilometers_per_hour": "30030.2739685432",
                "miles_per_hour": "18659.6444000651"
            },
            "miss_distance": {
                "astronomical": "0.0093757895",
                "lunar": "3.6471821155",
                "kilometers": "1402598.138768365",
                "miles": "871534.069858837"
            },
            "orbiting_body": "Earth"
        },
        {
            "close_approach_date": "2008-11-10",
            "close_approach_date_full": "2008-Nov-10 09:48",
            "epoch_date_close_approach": 1226310480000,
            "relative_velocity": {
                "kilometers_per_second": "11.7583101571",
                "kilometers_per_hour": "42329.9165656612",
                "miles_per_hour": "26302.1639904798"
            },
            "miss_distance": {
                "astronomical": "0.1442797032",
                "lunar": "56.1248045448",
                "kilometers": "21583936.282952184",
                "miles": "13411636.1003967792"
            },
            "orbiting_body": "Earth"
        },
        {
            "close_approach_date": "2010-05-19",
            "close_approach_date_full": "2010-May-19 18:27",
            "epoch_date_close_approach": 1274293620000,
            "relative_velocity": {
                "kilometers_per_second": "20.2343511136",
                "kilometers_per_hour": "72843.6640090313",
                "miles_per_hour": "45262.2200060561"
            },
            "miss_distance": {
                "astronomical": "0.4414596778",
                "lunar": "171.7278146642",
                "kilometers": "66041427.489766286",
                "miles": "41036240.1663993068"
            },
            "orbiting_body": "Earth"
        }
    ],
    "orbital_data": {
        "orbit_id": "6",
        "orbit_determination_date": "2017-04-06 09:14:07",
        "first_observation_date": "2003-05-01",
        "last_observation_date": "2003-05-03",
        "data_arc_in_days": 2,
        "observations_used": 31,
        "orbit_uncertainty": "8",
        "minimum_orbit_intersection": ".00922362",
        "jupiter_tisserand_invariant": "5.548",
        "epoch_osculation": "2452761.5",
        "eccentricity": ".2438761055891727",
        "semi_major_axis": "1.115887544618041",
        "inclination": "9.688565565650654",
        "ascending_node_longitude": "219.3535085304025",
        "orbital_period": "430.5554312133768",
        "perihelion_distance": ".8437492359611289",
        "perihelion_argument": "276.2266738653034",
        "aphelion_distance": "1.388025853274953",
        "perihelion_time": "2452691.846248448935",
        "mean_anomaly": "58.23954069680852",
        "mean_motion": ".8361292737277989",
        "equinox": "J2000",
        "orbit_class": {
            "orbit_class_type": "APO",
            "orbit_class_description": "Near-Earth asteroid orbits which cross the Earth’s orbit similar to that of 1862 Apollo",
            "orbit_class_range": "a (semi-major axis) > 1.0 AU; q (perihelion) < 1.017 AU"
        }
    },
    "is_sentry_object": false
}